{"epoch":1784710044,"count":18256,"objects":[{"id":"43798","name":"ASTROCAST-01","type":"PAYLOAD","l1":"1 43798U 18099AS  26202.59051820  .00037595  00000-0  62914-3 0  9994","l2":"2 43798  97.4363 282.2176 0005296 111.4760 248.7057 15.51779687419761"},{"id":"55109","name":"ASTROCAST-0402","type":"PAYLOAD","l1":"1 55109U 23001DE  26202.53572412  .00014005  00000-0  49750-3 0  9995","l2":"2 55109  97.5575 296.2613 0006623 117.3552 242.8362 15.29121143149785"},{"id":"55110","name":"ASTROCAST-0401","type":"PAYLOAD","l1":"1 55110U 23001DF  26202.22579379  .00014146  00000-0  50889-3 0  9993","l2":"2 55110  97.5557 295.7468 0009399  90.3099 269.9218 15.28682012196405"},{"id":"55111","name":"ASTROCAST-0403","type":"PAYLOAD","l1":"1 55111U 23001DG  26202.61915838  .00024184  00000-0  77002-3 0  9990","l2":"2 55111  97.5613 297.5090 0005255 190.4550 169.6583 15.32554578149837"},{"id":"55112","name":"ASTROCAST-0404","type":"PAYLOAD","l1":"1 55112U 23001DH  26202.57021249  .00006800  00000-0  24499-3 0  9997","l2":"2 55112  97.5663 297.2346 0005590 216.3659 143.7201 15.28887003149785"}]}