{"fetched_at":"2026-07-22T07:09:32.717Z","source":"https://celestrak.org/NORAD/elements/gp.php?NAME=ASTROCAST&FORMAT=JSON","constellation":"astrocast","records":[{"OBJECT_NAME":"ASTROCAST 0.1","OBJECT_ID":"2018-099AS","EPOCH":"2026-07-21T14:10:20.772480","CLASSIFICATION_TYPE":"U","MEAN_MOTION":15.51779687,"ECCENTRICITY":0.00052964,"INCLINATION":97.4363,"RA_OF_ASC_NODE":282.2176,"ARG_OF_PERICENTER":111.476,"MEAN_ANOMALY":248.7057,"EPHEMERIS_TYPE":0,"NORAD_CAT_ID":43798,"ELEMENT_SET_NO":999,"REV_AT_EPOCH":41976,"BSTAR":0.00062913749,"MEAN_MOTION_DOT":0.00037595,"MEAN_MOTION_DDOT":0},{"OBJECT_NAME":"ASTROCAST-0402","OBJECT_ID":"2023-001DE","EPOCH":"2026-07-21T12:51:26.563968","CLASSIFICATION_TYPE":"U","MEAN_MOTION":15.29121143,"ECCENTRICITY":0.00066226,"INCLINATION":97.5575,"RA_OF_ASC_NODE":296.2613,"ARG_OF_PERICENTER":117.3552,"MEAN_ANOMALY":242.8362,"EPHEMERIS_TYPE":0,"NORAD_CAT_ID":55109,"ELEMENT_SET_NO":999,"REV_AT_EPOCH":14978,"BSTAR":0.00049750372,"MEAN_MOTION_DOT":0.00014005,"MEAN_MOTION_DDOT":0},{"OBJECT_NAME":"ASTROCAST-0401","OBJECT_ID":"2023-001DF","EPOCH":"2026-07-21T05:25:08.583456","CLASSIFICATION_TYPE":"U","MEAN_MOTION":15.28682012,"ECCENTRICITY":0.00093993,"INCLINATION":97.5557,"RA_OF_ASC_NODE":295.7468,"ARG_OF_PERICENTER":90.3099,"MEAN_ANOMALY":269.9218,"EPHEMERIS_TYPE":0,"NORAD_CAT_ID":55110,"ELEMENT_SET_NO":999,"REV_AT_EPOCH":19640,"BSTAR":0.00050889384,"MEAN_MOTION_DOT":0.00014146,"MEAN_MOTION_DDOT":0},{"OBJECT_NAME":"ASTROCAST-0403","OBJECT_ID":"2023-001DG","EPOCH":"2026-07-21T14:51:35.284032","CLASSIFICATION_TYPE":"U","MEAN_MOTION":15.32554578,"ECCENTRICITY":0.00052551,"INCLINATION":97.5613,"RA_OF_ASC_NODE":297.509,"ARG_OF_PERICENTER":190.455,"MEAN_ANOMALY":169.6583,"EPHEMERIS_TYPE":0,"NORAD_CAT_ID":55111,"ELEMENT_SET_NO":999,"REV_AT_EPOCH":14983,"BSTAR":0.00077002086,"MEAN_MOTION_DOT":0.00024184,"MEAN_MOTION_DDOT":0},{"OBJECT_NAME":"ASTROCAST-0404","OBJECT_ID":"2023-001DH","EPOCH":"2026-07-21T13:41:06.359136","CLASSIFICATION_TYPE":"U","MEAN_MOTION":15.28887003,"ECCENTRICITY":0.00055896,"INCLINATION":97.5663,"RA_OF_ASC_NODE":297.2346,"ARG_OF_PERICENTER":216.3659,"MEAN_ANOMALY":143.7201,"EPHEMERIS_TYPE":0,"NORAD_CAT_ID":55112,"ELEMENT_SET_NO":999,"REV_AT_EPOCH":14978,"BSTAR":0.00024499046,"MEAN_MOTION_DOT":0.000068,"MEAN_MOTION_DDOT":0}]}
